{
    "links": {
        "self": "http://www.neowsapp.com/rest/v1/neo/3698501?api_key=iIulBulltgU6a56xZRHN4H3l9WmuAYTsLGpBGhQ2"
    },
    "id": "3698501",
    "neo_reference_id": "3698501",
    "name": "(2014 HX196)",
    "designation": "2014 HX196",
    "nasa_jpl_url": "http://ssd.jpl.nasa.gov/sbdb.cgi?sstr=3698501",
    "absolute_magnitude_h": 24.2,
    "estimated_diameter": {
        "kilometers": {
            "estimated_diameter_min": 0.0384197891,
            "estimated_diameter_max": 0.0859092601
        },
        "meters": {
            "estimated_diameter_min": 38.4197891064,
            "estimated_diameter_max": 85.9092601232
        },
        "miles": {
            "estimated_diameter_min": 0.0238729428,
            "estimated_diameter_max": 0.0533815229
        },
        "feet": {
            "estimated_diameter_min": 126.0491808919,
            "estimated_diameter_max": 281.8545369825
        }
    },
    "is_potentially_hazardous_asteroid": false,
    "close_approach_data": [
        {
            "close_approach_date": "2014-05-17",
            "close_approach_date_full": "2014-May-17 00:33",
            "epoch_date_close_approach": 1400286780000,
            "relative_velocity": {
                "kilometers_per_second": "20.1732740117",
                "kilometers_per_hour": "72623.786442214",
                "miles_per_hour": "45125.5966368301"
            },
            "miss_distance": {
                "astronomical": "0.2694772907",
                "lunar": "104.8266660823",
                "kilometers": "40313228.702090809",
                "miles": "25049478.7557148042"
            },
            "orbiting_body": "Earth"
        },
        {
            "close_approach_date": "2014-07-17",
            "close_approach_date_full": "2014-Jul-17 15:29",
            "epoch_date_close_approach": 1405610940000,
            "relative_velocity": {
                "kilometers_per_second": "28.4150593978",
                "kilometers_per_hour": "102294.2138319238",
                "miles_per_hour": "63561.6463668417"
            },
            "miss_distance": {
                "astronomical": "0.0972465324",
                "lunar": "37.8289011036",
                "kilometers": "14547874.111925988",
                "miles": "9039629.7999471144"
            },
            "orbiting_body": "Merc"
        }
    ],
    "orbital_data": {
        "orbit_id": "3",
        "orbit_determination_date": "2017-04-06 08:41:00",
        "first_observation_date": "2014-04-23",
        "last_observation_date": "2014-04-25",
        "data_arc_in_days": 2,
        "observations_used": 24,
        "orbit_uncertainty": "9",
        "minimum_orbit_intersection": ".149555",
        "jupiter_tisserand_invariant": "4.334",
        "epoch_osculation": "2456771.5",
        "eccentricity": ".7127597787603382",
        "semi_major_axis": "1.419519402445075",
        "inclination": "24.25313558490236",
        "ascending_node_longitude": "31.62600581516575",
        "orbital_period": "617.7466889849942",
        "perihelion_distance": ".4077430672123157",
        "perihelion_argument": "317.9129409928484",
        "aphelion_distance": "2.431295737677833",
        "perihelion_time": "2456854.726331976851",
        "mean_anomaly": "311.498761473096",
        "mean_motion": ".5827631396802918",
        "equinox": "J2000",
        "orbit_class": {
            "orbit_class_type": "APO",
            "orbit_class_description": "Near-Earth asteroid orbits which cross the Earth’s orbit similar to that of 1862 Apollo",
            "orbit_class_range": "a (semi-major axis) > 1.0 AU; q (perihelion) < 1.017 AU"
        }
    },
    "is_sentry_object": false
}